{"type": "FeatureCollection", "features": [ {"type": "Feature", "properties": {"norad_id": 31342, "name": "FENGYUN 1C DEB", "group": "fengyun-1c-debris", "lat": -2.4859195569507473, "lon": 114.55552467265366, "alt_km": 732.2970798188489, "timestamp": "2025-12-04T23:34:06.004505+00:00", "meta": {"OBJECT_NAME": "FENGYUN 1C DEB", "OBJECT_ID": "1999-025BQW", "EPOCH": "2025-11-29T02:18:53.046720", "MEAN_MOTION": 14.36748173, "ECCENTRICITY": 0.01111347, "INCLINATION": 98.9329, "RA_OF_ASC_NODE": 288.8418, "ARG_OF_PERICENTER": 259.8555, "MEAN_ANOMALY": 99.0079, "EPHEMERIS_TYPE": 0, "CLASSIFICATION_TYPE": "U", "NORAD_CAT_ID": 31342, "ELEMENT_SET_NO": 999, "REV_AT_EPOCH": 97695, "BSTAR": 0.00017184307, "MEAN_MOTION_DOT": 4.93e-06, "MEAN_MOTION_DDOT": 0}, "tle": {"line1": "1 31342U 99025BQW 25333.09644730  .00000493  00000+0  17184-3 0  9996", "line2": "2 31342  98.9329 288.8418 0111134 259.8555  99.0079 14.36748173976958"}}, "geometry": {"type": "Point", "coordinates": [114.55552467265366, -2.4859195569507473]}}, {"type": "Feature", "properties": {"norad_id": 31346, "name": "FENGYUN 1C DEB", "group": "fengyun-1c-debris", "lat": 73.25535352791061, "lon": 155.97293427019113, "alt_km": 492.2613024166376, "timestamp": "2025-12-04T23:34:06.004529+00:00", "meta": {"OBJECT_NAME": "FENGYUN 1C DEB", "OBJECT_ID": "1999-025BRA", "EPOCH": "2025-12-03T15:19:03.043488", "MEAN_MOTION": 15.10306976, "ECCENTRICITY": 0.01128845, "INCLINATION": 98.8643, "RA_OF_ASC_NODE": 303.1721, "ARG_OF_PERICENTER": 45.3563, "MEAN_ANOMALY": 315.6798, "EPHEMERIS_TYPE": 0, "CLASSIFICATION_TYPE": "U", "NORAD_CAT_ID": 31346, "ELEMENT_SET_NO": 999, "REV_AT_EPOCH": 99358, "BSTAR": 0.0016108352, "MEAN_MOTION_DOT": 0.00030745, "MEAN_MOTION_DDOT": 0}, "tle": {"line1": "1 31346U 99025BRA 25337.63822967  .00030745  00000+0  16108-2 0  9991", "line2": "2 31346  98.8643 303.1721 0112884  45.3563 315.6798 15.10306976993585"}}, "geometry": {"type": "Point", "coordinates": [155.97293427019113, 73.25535352791061]}}, {"type": "Feature", "properties": {"norad_id": 31348, "name": "FENGYUN 1C DEB", "group": "fengyun-1c-debris", "lat": 74.35025010525013, "lon": 144.52258041043697, "alt_km": 747.3799668412748, "timestamp": "2025-12-04T23:34:06.004541+00:00", "meta": {"OBJECT_NAME": "FENGYUN 1C DEB", "OBJECT_ID": "1999-025BRC", "EPOCH": "2025-12-02T08:09:36.502848", "MEAN_MOTION": 14.33921612, "ECCENTRICITY": 0.00348741, "INCLINATION": 99.1182, "RA_OF_ASC_NODE": 286.7588, "ARG_OF_PERICENTER": 95.0005, "MEAN_ANOMALY": 56.8667, "EPHEMERIS_TYPE": 0, "CLASSIFICATION_TYPE": "U", "NORAD_CAT_ID": 31348, "ELEMENT_SET_NO": 999, "REV_AT_EPOCH": 96100, "BSTAR": 0.0014908985, "MEAN_MOTION_DOT": 4.138e-05, "MEAN_MOTION_DDOT": 0}, "tle": {"line1": "1 31348U 99025BRC 25336.34000582  .00004138  00000+0  14909-2 0  9995", "line2": "2 31348  99.1182 286.7588 0034874  95.0005  56.8667 14.33921612961006"}}, "geometry": {"type": "Point", "coordinates": [144.52258041043697, 74.35025010525013]}}, {"type": "Feature", "properties": {"norad_id": 31350, "name": "FENGYUN 1C DEB", "group": "fengyun-1c-debris", "lat": -18.797255662372052, "lon": 153.7832190871924, "alt_km": 827.201505590635, "timestamp": "2025-12-04T23:34:06.004551+00:00", "meta": {"OBJECT_NAME": "FENGYUN 1C DEB", "OBJECT_ID": "1999-025BRE", "EPOCH": "2025-11-30T17:33:48.876480", "MEAN_MOTION": 14.34783112, "ECCENTRICITY": 0.00667285, "INCLINATION": 98.9598, "RA_OF_ASC_NODE": 146.2979, "ARG_OF_PERICENTER": 160.2382, "MEAN_ANOMALY": 200.141, "EPHEMERIS_TYPE": 0, "CLASSIFICATION_TYPE": "U", "NORAD_CAT_ID": 31350, "ELEMENT_SET_NO": 999, "REV_AT_EPOCH": 70081, "BSTAR": 0.00062280408, "MEAN_MOTION_DOT": 1.764e-05, "MEAN_MOTION_DDOT": 0}, "tle": {"line1": "1 31350U 99025BRE 25334.73181570  .00001764  00000+0  62280-3 0  9994", "line2": "2 31350  98.9598 146.2979 0066728 160.2382 200.1410 14.34783112700819"}}, "geometry": {"type": "Point", "coordinates": [153.7832190871924, -18.797255662372052]}}, {"type": "Feature", "properties": {"norad_id": 31351, "name": "FENGYUN 1C DEB", "group": "fengyun-1c-debris", "lat": -80.73838380381589, "lon": 74.29562760190804, "alt_km": 943.1516924564294, "timestamp": "2025-12-04T23:34:06.004562+00:00", "meta": {"OBJECT_NAME": "FENGYUN 1C DEB", "OBJECT_ID": "1999-025BRF", "EPOCH": "2025-12-03T10:27:48.292704", "MEAN_MOTION": 14.06918147, "ECCENTRICITY": 0.0093812, "INCLINATION": 98.7941, "RA_OF_ASC_NODE": 324.4684, "ARG_OF_PERICENTER": 77.2501, "MEAN_ANOMALY": 283.9133, "EPHEMERIS_TYPE": 0, "CLASSIFICATION_TYPE": "U", "NORAD_CAT_ID": 31351, "ELEMENT_SET_NO": 999, "REV_AT_EPOCH": 61244, "BSTAR": 0.00036238067, "MEAN_MOTION_DOT": 5.87e-06, "MEAN_MOTION_DDOT": 0}, "tle": {"line1": "1 31351U 99025BRF 25337.43597561  .00000587  00000+0  36238-3 0  9992", "line2": "2 31351  98.7941 324.4684 0093812  77.2501 283.9133 14.06918147612446"}}, "geometry": {"type": "Point", "coordinates": [74.29562760190804, -80.73838380381589]}}, {"type": "Feature", "properties": {"norad_id": 31353, "name": "FENGYUN 1C DEB", "group": "fengyun-1c-debris", "lat": -24.244915309665107, "lon": 79.91965142717986, "alt_km": 862.7638607116296, "timestamp": "2025-12-04T23:34:06.004572+00:00", "meta": {"OBJECT_NAME": "FENGYUN 1C DEB", "OBJECT_ID": "1999-025BRH", "EPOCH": "2025-11-28T00:21:57.879936", "MEAN_MOTION": 14.29784822, "ECCENTRICITY": 0.02273016, "INCLINATION": 98.9934, "RA_OF_ASC_NODE": 256.8108, "ARG_OF_PERICENTER": 110.0293, "MEAN_ANOMALY": 252.5515, "EPHEMERIS_TYPE": 0, "CLASSIFICATION_TYPE": "U", "NORAD_CAT_ID": 31353, "ELEMENT_SET_NO": 999, "REV_AT_EPOCH": 96374, "BSTAR": 0.00040911928, "MEAN_MOTION_DOT": 1.339e-05, "MEAN_MOTION_DDOT": 0}, "tle": {"line1": "1 31353U 99025BRH 25332.01525324  .00001339  00000+0  40912-3 0  9991", "line2": "2 31353  98.9934 256.8108 0227301 110.0293 252.5515 14.29784822963741"}}, "geometry": {"type": "Point", "coordinates": [79.91965142717986, -24.244915309665107]}}, {"type": "Feature", "properties": {"norad_id": 31357, "name": "FENGYUN 1C DEB", "group": "fengyun-1c-debris", "lat": 69.53507505178014, "lon": -13.75080458533766, "alt_km": 838.848281679504, "timestamp": "2025-12-04T23:34:06.004588+00:00", "meta": {"OBJECT_NAME": "FENGYUN 1C DEB", "OBJECT_ID": "1999-025BRM", "EPOCH": "2025-11-30T00:52:28.172352", "MEAN_MOTION": 14.18522875, "ECCENTRICITY": 0.00493295, "INCLINATION": 98.613, "RA_OF_ASC_NODE": 5.4099, "ARG_OF_PERICENTER": 329.9646, "MEAN_ANOMALY": 59.6806, "EPHEMERIS_TYPE": 0, "CLASSIFICATION_TYPE": "U", "NORAD_CAT_ID": 31357, "ELEMENT_SET_NO": 999, "REV_AT_EPOCH": 96524, "BSTAR": 4.375307e-05, "MEAN_MOTION_DOT": 4.9e-07, "MEAN_MOTION_DDOT": 0}, "tle": {"line1": "1 31357U 99025BRM 25334.03643718  .00000049  00000+0  43753-4 0  9991", "line2": "2 31357  98.6130   5.4099 0049329 329.9646  59.6806 14.18522875965244"}}, "geometry": {"type": "Point", "coordinates": [-13.75080458533766, 69.53507505178014]}}, {"type": "Feature", "properties": {"norad_id": 31358, "name": "FENGYUN 1C DEB", "group": "fengyun-1c-debris", "lat": 70.79790555859434, "lon": 117.47761052364753, "alt_km": 489.25418456228454, "timestamp": "2025-12-04T23:34:06.004598+00:00", "meta": {"OBJECT_NAME": "FENGYUN 1C DEB", "OBJECT_ID": "1999-025BRN", "EPOCH": "2025-12-03T18:33:36.266688", "MEAN_MOTION": 15.14473154, "ECCENTRICITY": 0.00416222, "INCLINATION": 98.9068, "RA_OF_ASC_NODE": 269.3016, "ARG_OF_PERICENTER": 140.0303, "MEAN_ANOMALY": 220.4002, "EPHEMERIS_TYPE": 0, "CLASSIFICATION_TYPE": "U", "NORAD_CAT_ID": 31358, "ELEMENT_SET_NO": 999, "REV_AT_EPOCH": 97434, "BSTAR": 0.010405423, "MEAN_MOTION_DOT": 0.002006, "MEAN_MOTION_DDOT": 0}, "tle": {"line1": "1 31358U 99025BRN 25337.77333642  .00200600  00000+0  10405-1 0  9998", "line2": "2 31358  98.9068 269.3016 0041622 140.0303 220.4002 15.14473154974347"}}, "geometry": {"type": "Point", "coordinates": [117.47761052364753, 70.79790555859434]}}, {"type": "Feature", "properties": {"norad_id": 31361, "name": "FENGYUN 1C DEB", "group": "fengyun-1c-debris", "lat": -56.002414700288185, "lon": 121.69281562789413, "alt_km": 867.080872171764, "timestamp": "2025-12-04T23:34:06.004609+00:00", "meta": {"OBJECT_NAME": "FENGYUN 1C DEB", "OBJECT_ID": "1999-025BRR", "EPOCH": "2025-12-03T15:58:11.590752", "MEAN_MOTION": 14.17736902, "ECCENTRICITY": 0.00461588, "INCLINATION": 98.5502, "RA_OF_ASC_NODE": 313.3143, "ARG_OF_PERICENTER": 96.2231, "MEAN_ANOMALY": 264.4206, "EPHEMERIS_TYPE": 0, "CLASSIFICATION_TYPE": "U", "NORAD_CAT_ID": 31361, "ELEMENT_SET_NO": 999, "REV_AT_EPOCH": 96435, "BSTAR": 0.00017999368, "MEAN_MOTION_DOT": 3.29e-06, "MEAN_MOTION_DDOT": 0}, "tle": {"line1": "1 31361U 99025BRR 25337.66541193  .00000329  00000+0  17999-3 0  9995", "line2": "2 31361  98.5502 313.3143 0046158  96.2231 264.4206 14.17736902964351"}}, "geometry": {"type": "Point", "coordinates": [121.69281562789413, -56.002414700288185]}}, {"type": "Feature", "properties": {"norad_id": 31362, "name": "FENGYUN 1C DEB", "group": "fengyun-1c-debris", "lat": -43.92786739316646, "lon": 145.10447049283786, "alt_km": 845.0880980803768, "timestamp": "2025-12-04T23:34:06.004621+00:00", "meta": {"OBJECT_NAME": "FENGYUN 1C DEB", "OBJECT_ID": "1999-025BRS", "EPOCH": "2025-12-04T05:34:19.308288", "MEAN_MOTION": 14.17369803, "ECCENTRICITY": 0.0019096, "INCLINATION": 98.6521, "RA_OF_ASC_NODE": 332.8085, "ARG_OF_PERICENTER": 118.8097, "MEAN_ANOMALY": 241.4998, "EPHEMERIS_TYPE": 0, "CLASSIFICATION_TYPE": "U", "NORAD_CAT_ID": 31362, "ELEMENT_SET_NO": 999, "REV_AT_EPOCH": 96455, "BSTAR": 0.00030253, "MEAN_MOTION_DOT": 5.71e-06, "MEAN_MOTION_DDOT": 0}, "tle": {"line1": "1 31362U 99025BRS 25338.23216792  .00000571  00000+0  30253-3 0  9991", "line2": "2 31362  98.6521 332.8085 0019096 118.8097 241.4998 14.17369803964554"}}, "geometry": {"type": "Point", "coordinates": [145.10447049283786, -43.92786739316646]}}]}